{"type": "FeatureCollection", "features": [{"type": "Feature", "properties": {"site_name": "Bacoor City Inner Islands Reclamation (Island B)", "regular_project": "90-Hectare Inner Islands Reclamation Project (90 Has)", "regular_lot": "Island B - 16.5 hectares", "site_area_ha": 5.22, "regular_area_ha": 16.579, "area_diff_pct": 68.5, "reason": "Area and boundary differ significantly between the Regular Reclamation Projects listing and the surveyed site polygon."}, "geometry": {"type": "Point", "coordinates": [120.9524, 14.465459]}}, {"type": "Feature", "properties": {"site_name": "Bacoor City Inner Islands Reclamation (Island C)", "regular_project": "90-Hectare Inner Islands Reclamation Project (90 Has)", "regular_lot": "Island C - 34.4 hectares", "site_area_ha": 2.975, "regular_area_ha": 34.458, "area_diff_pct": 91.4, "reason": "Area and boundary differ significantly between the Regular Reclamation Projects listing and the surveyed site polygon."}, "geometry": {"type": "Point", "coordinates": [120.945482, 14.46275]}}, {"type": "Feature", "properties": {"site_name": "Batangas Port", "regular_project": "Batangas Port Reclamation Project (40 Has)", "regular_lot": "", "site_area_ha": 3.422, "regular_area_ha": 39.349, "area_diff_pct": 91.3, "reason": "Area and boundary differ significantly between the Regular Reclamation Projects listing and the surveyed site polygon."}, "geometry": {"type": "Point", "coordinates": [121.046983, 13.745137]}}, {"type": "Feature", "properties": {"site_name": "Main Coast International Terminal Port, Inc. (MCITPI)", "regular_project": "MCITPI Private Port Component Project (1 Ha)", "regular_lot": "", "site_area_ha": 1.809, "regular_area_ha": 1.022, "area_diff_pct": 43.5, "reason": "Area differs between the Regular Reclamation Projects listing and the surveyed site polygon."}, "geometry": {"type": "Point", "coordinates": [120.961375, 13.767342]}}, {"type": "Feature", "properties": {"site_name": "Sangley Point Runway Extension", "regular_project": "Sangley Point International Airport Reclamation Project (1,900 Has)", "regular_lot": "143 Has / 1446 Has", "site_area_ha": 5.907, "regular_area_ha": 1449.21, "area_diff_pct": 99.6, "reason": "Area and boundary differ significantly between the Regular Reclamation Projects listing and the surveyed site polygon."}, "geometry": {"type": "Point", "coordinates": [120.895981, 14.493088]}}]}